{"fetched_at":"2026-07-06T18:36:02.836Z","source":"https://celestrak.org/NORAD/elements/gp.php?NAME=WORLDVIEW&FORMAT=JSON","constellation":"worldview","records":[{"OBJECT_NAME":"WORLDVIEW-1 (WV-1)","OBJECT_ID":"2007-041A","EPOCH":"2026-07-06T06:18:34.639488","CLASSIFICATION_TYPE":"U","MEAN_MOTION":15.24490855,"ECCENTRICITY":0.00009311,"INCLINATION":97.3893,"RA_OF_ASC_NODE":306.737,"ARG_OF_PERICENTER":269.3858,"MEAN_ANOMALY":90.7273,"EPHEMERIS_TYPE":0,"NORAD_CAT_ID":32060,"ELEMENT_SET_NO":999,"REV_AT_EPOCH":4578,"BSTAR":0.00025339523,"MEAN_MOTION_DOT":0.00006157,"MEAN_MOTION_DDOT":0},{"OBJECT_NAME":"WORLDVIEW-2 (WV-2)","OBJECT_ID":"2009-055A","EPOCH":"2026-07-06T07:11:54.049632","CLASSIFICATION_TYPE":"U","MEAN_MOTION":14.37905305,"ECCENTRICITY":0.00048969,"INCLINATION":98.476,"RA_OF_ASC_NODE":260.4888,"ARG_OF_PERICENTER":151.9016,"MEAN_ANOMALY":208.2436,"EPHEMERIS_TYPE":0,"NORAD_CAT_ID":35946,"ELEMENT_SET_NO":999,"REV_AT_EPOCH":87839,"BSTAR":0.000058474782,"MEAN_MOTION_DOT":0.00000133,"MEAN_MOTION_DDOT":0},{"OBJECT_NAME":"WORLDVIEW-3 (WV-3)","OBJECT_ID":"2014-048A","EPOCH":"2026-07-06T07:16:35.209920","CLASSIFICATION_TYPE":"U","MEAN_MOTION":14.85054833,"ECCENTRICITY":0.0000584,"INCLINATION":97.856,"RA_OF_ASC_NODE":261.8718,"ARG_OF_PERICENTER":167.2449,"MEAN_ANOMALY":192.8781,"EPHEMERIS_TYPE":0,"NORAD_CAT_ID":40115,"ELEMENT_SET_NO":999,"REV_AT_EPOCH":64474,"BSTAR":0.00011499021,"MEAN_MOTION_DOT":0.00000929,"MEAN_MOTION_DDOT":0}]}
